{"type": "FeatureCollection", "features": [{"type": "Feature", "properties": {"norad_id": 2807, "name": "OPS 7218 (TRANSIT 16)", "group": "nnss", "lat": 13.301240095860503, "lon": -5.795815655511556, "alt_km": 1076.0776618183954, "timestamp": "2025-12-09T09:46:47.913822+00:00", "meta": {"OBJECT_NAME": "OPS 7218 (TRANSIT 16)", "OBJECT_ID": "1967-048A", "EPOCH": "2025-12-09T01:05:23.708256", "MEAN_MOTION": 13.5072118, "ECCENTRICITY": 0.0021798, "INCLINATION": 89.6731, "RA_OF_ASC_NODE": 354.1388, "ARG_OF_PERICENTER": 123.9796, "MEAN_ANOMALY": 290.0379, "EPHEMERIS_TYPE": 0, "CLASSIFICATION_TYPE": "U", "NORAD_CAT_ID": 2807, "ELEMENT_SET_NO": 999, "REV_AT_EPOCH": 88226, "BSTAR": 0.00020521, "MEAN_MOTION_DOT": 1.43e-06, "MEAN_MOTION_DDOT": 0}, "tle": {"line1": "1 02807U 67048A   25343.04541329  .00000143  00000+0  20521-3 0  9997", "line2": "2 02807  89.6731 354.1388 0021798 123.9796 290.0379 13.50721180882263"}}, "geometry": {"type": "Point", "coordinates": [-5.795815655511556, 13.301240095860503]}}, {"type": "Feature", "properties": {"norad_id": 2965, "name": "OPS 4947 (TRANSIT 17)", "group": "nnss", "lat": 45.50231892455469, "lon": 25.453799224271155, "alt_km": 1088.0440997422384, "timestamp": "2025-12-09T09:46:47.913844+00:00", "meta": {"OBJECT_NAME": "OPS 4947 (TRANSIT 17)", "OBJECT_ID": "1967-092A", "EPOCH": "2025-12-09T04:32:40.270272", "MEAN_MOTION": 13.53452129, "ECCENTRICITY": 0.0045987, "INCLINATION": 89.2499, "RA_OF_ASC_NODE": 24.7065, "ARG_OF_PERICENTER": 245.1537, "MEAN_ANOMALY": 177.9997, "EPHEMERIS_TYPE": 0, "CLASSIFICATION_TYPE": "U", "NORAD_CAT_ID": 2965, "ELEMENT_SET_NO": 999, "REV_AT_EPOCH": 87049, "BSTAR": 0.00022948, "MEAN_MOTION_DOT": 1.66e-06, "MEAN_MOTION_DDOT": 0}, "tle": {"line1": "1 02965U 67092A   25343.18935498  .00000166  00000+0  22948-3 0  9990", "line2": "2 02965  89.2499  24.7065 0045987 245.1537 177.9997 13.53452129870491"}}, "geometry": {"type": "Point", "coordinates": [25.453799224271155, 45.50231892455469]}}, {"type": "Feature", "properties": {"norad_id": 3133, "name": "OPS 7034 (TRANSIT 18)", "group": "nnss", "lat": -37.843566710890556, "lon": 93.6078807409895, "alt_km": 1030.2238704254978, "timestamp": "2025-12-09T09:46:47.913859+00:00", "meta": {"OBJECT_NAME": "OPS 7034 (TRANSIT 18)", "OBJECT_ID": "1968-012A", "EPOCH": "2025-12-08T20:34:01.224768", "MEAN_MOTION": 13.51564436, "ECCENTRICITY": 0.00734771, "INCLINATION": 90.0276, "RA_OF_ASC_NODE": 273.6278, "ARG_OF_PERICENTER": 180.4121, "MEAN_ANOMALY": 239.6766, "EPHEMERIS_TYPE": 0, "CLASSIFICATION_TYPE": "U", "NORAD_CAT_ID": 3133, "ELEMENT_SET_NO": 999, "REV_AT_EPOCH": 56866, "BSTAR": 0.00029762797, "MEAN_MOTION_DOT": 2.07e-06, "MEAN_MOTION_DDOT": 0}, "tle": {"line1": "1 03133U 68012A   25342.85695862  .00000207  00000+0  29763-3 0  9990", "line2": "2 03133  90.0276 273.6278 0073477 180.4121 239.6766 13.51564436568664"}}, "geometry": {"type": "Point", "coordinates": [93.6078807409895, -37.843566710890556]}}, {"type": "Feature", "properties": {"norad_id": 4507, "name": "NNSS 19 (TRANSIT 19)", "group": "nnss", "lat": -9.999184782982613, "lon": 54.53053063702509, "alt_km": 1119.9341881055325, "timestamp": "2025-12-09T09:46:47.913871+00:00", "meta": {"OBJECT_NAME": "NNSS 19 (TRANSIT 19)", "OBJECT_ID": "1970-067A", "EPOCH": "2025-12-08T23:56:26.901312", "MEAN_MOTION": 13.51313694, "ECCENTRICITY": 0.01707761, "INCLINATION": 90.0057, "RA_OF_ASC_NODE": 234.5313, "ARG_OF_PERICENTER": 304.3138, "MEAN_ANOMALY": 54.195, "EPHEMERIS_TYPE": 0, "CLASSIFICATION_TYPE": "U", "NORAD_CAT_ID": 4507, "ELEMENT_SET_NO": 999, "REV_AT_EPOCH": 72171, "BSTAR": 0.00029264395, "MEAN_MOTION_DOT": 2.16e-06, "MEAN_MOTION_DDOT": 0}, "tle": {"line1": "1 04507U 70067A   25342.99753358  .00000216  00000+0  29264-3 0  9995", "line2": "2 04507  90.0057 234.5313 0170776 304.3138  54.1950 13.51313694721718"}}, "geometry": {"type": "Point", "coordinates": [54.53053063702509, -9.999184782982613]}}, {"type": "Feature", "properties": {"norad_id": 6909, "name": "NNSS 20 (TRANSIT 20)", "group": "nnss", "lat": 21.600056910676415, "lon": -104.83898887910433, "alt_km": 946.6421461915106, "timestamp": "2025-12-09T09:46:47.913883+00:00", "meta": {"OBJECT_NAME": "NNSS 20 (TRANSIT 20)", "OBJECT_ID": "1973-081A", "EPOCH": "2025-12-09T04:25:21.173376", "MEAN_MOTION": 13.7143159, "ECCENTRICITY": 0.0156609, "INCLINATION": 89.8562, "RA_OF_ASC_NODE": 255.1074, "ARG_OF_PERICENTER": 88.8414, "MEAN_ANOMALY": 273.0686, "EPHEMERIS_TYPE": 0, "CLASSIFICATION_TYPE": "U", "NORAD_CAT_ID": 6909, "ELEMENT_SET_NO": 999, "REV_AT_EPOCH": 80312, "BSTAR": 0.00032094, "MEAN_MOTION_DOT": 3.27e-06, "MEAN_MOTION_DDOT": 0}, "tle": {"line1": "1 06909U 73081A   25343.18427284  .00000327  00000+0  32094-3 0  9998", "line2": "2 06909  89.8562 255.1074 0156609  88.8414 273.0686 13.71431590803128"}}, "geometry": {"type": "Point", "coordinates": [-104.83898887910433, 21.600056910676415]}}, {"type": "Feature", "properties": {"norad_id": 10457, "name": "TRANSAT", "group": "nnss", "lat": -45.28724349463668, "lon": -100.92937409651566, "alt_km": 1066.1371596277904, "timestamp": "2025-12-09T09:46:47.913895+00:00", "meta": {"OBJECT_NAME": "TRANSAT", "OBJECT_ID": "1977-106A", "EPOCH": "2025-12-08T20:48:25.255872", "MEAN_MOTION": 13.48942788, "ECCENTRICITY": 0.00250257, "INCLINATION": 89.6481, "RA_OF_ASC_NODE": 78.7341, "ARG_OF_PERICENTER": 200.8662, "MEAN_ANOMALY": 280.8023, "EPHEMERIS_TYPE": 0, "CLASSIFICATION_TYPE": "U", "NORAD_CAT_ID": 10457, "ELEMENT_SET_NO": 999, "REV_AT_EPOCH": 36691, "BSTAR": 0.00022884886, "MEAN_MOTION_DOT": 1.54e-06, "MEAN_MOTION_DDOT": 0}, "tle": {"line1": "1 10457U 77106A   25342.86695898  .00000154  00000+0  22885-3 0  9990", "line2": "2 10457  89.6481  78.7341 0025025 200.8662 280.8023 13.48942788366915"}}, "geometry": {"type": "Point", "coordinates": [-100.92937409651566, -45.28724349463668]}}, {"type": "Feature", "properties": {"norad_id": 12458, "name": "NOVA 1", "group": "nnss", "lat": 73.92699378258501, "lon": 91.94479542854194, "alt_km": 1155.862295717413, "timestamp": "2025-12-09T09:46:47.913906+00:00", "meta": {"OBJECT_NAME": "NOVA 1", "OBJECT_ID": "1981-044A", "EPOCH": "2025-12-08T21:17:39.461856", "MEAN_MOTION": 13.23277871, "ECCENTRICITY": 0.00157974, "INCLINATION": 89.8524, "RA_OF_ASC_NODE": 91.4396, "ARG_OF_PERICENTER": 113.4521, "MEAN_ANOMALY": 3.7468, "EPHEMERIS_TYPE": 0, "CLASSIFICATION_TYPE": "U", "NORAD_CAT_ID": 12458, "ELEMENT_SET_NO": 999, "REV_AT_EPOCH": 15135, "BSTAR": 0.0002470035, "MEAN_MOTION_DOT": 1.14e-06, "MEAN_MOTION_DDOT": 0}, "tle": {"line1": "1 12458U 81044A   25342.88726229  .00000114  00000+0  24700-3 0  9998", "line2": "2 12458  89.8524  91.4396 0015797 113.4521   3.7468 13.23277871151350"}}, "geometry": {"type": "Point", "coordinates": [91.94479542854194, 73.92699378258501]}}, {"type": "Feature", "properties": {"norad_id": 15362, "name": "NOVA 3", "group": "nnss", "lat": -50.70956782340437, "lon": 80.64505218490899, "alt_km": 1160.3604936089441, "timestamp": "2025-12-09T09:46:47.913918+00:00", "meta": {"OBJECT_NAME": "NOVA 3", "OBJECT_ID": "1984-110A", "EPOCH": "2025-12-09T04:41:35.634912", "MEAN_MOTION": 13.23043908, "ECCENTRICITY": 0.0030762, "INCLINATION": 90.1223, "RA_OF_ASC_NODE": 80.493, "ARG_OF_PERICENTER": 341.9796, "MEAN_ANOMALY": 38.6613, "EPHEMERIS_TYPE": 0, "CLASSIFICATION_TYPE": "U", "NORAD_CAT_ID": 15362, "ELEMENT_SET_NO": 999, "REV_AT_EPOCH": 98652, "BSTAR": 0.00019191, "MEAN_MOTION_DOT": 8.9e-07, "MEAN_MOTION_DDOT": 0}, "tle": {"line1": "1 15362U 84110A   25343.19555133  .00000089  00000+0  19191-3 0  9990", "line2": "2 15362  90.1223  80.4930 0030762 341.9796  38.6613 13.23043908986527"}}, "geometry": {"type": "Point", "coordinates": [80.64505218490899, -50.70956782340437]}}, {"type": "Feature", "properties": {"norad_id": 15935, "name": "OSCAR 30", "group": "nnss", "lat": -55.463020059968414, "lon": -80.44721389966554, "alt_km": 1230.6713067730898, "timestamp": "2025-12-09T09:46:47.913929+00:00", "meta": {"OBJECT_NAME": "OSCAR 30", "OBJECT_ID": "1985-066A", "EPOCH": "2025-12-08T20:34:52.400352", "MEAN_MOTION": 13.36077407, "ECCENTRICITY": 0.01694116, "INCLINATION": 90.1649, "RA_OF_ASC_NODE": 99.7836, "ARG_OF_PERICENTER": 94.7382, "MEAN_ANOMALY": 15.8226, "EPHEMERIS_TYPE": 0, "CLASSIFICATION_TYPE": "U", "NORAD_CAT_ID": 15935, "ELEMENT_SET_NO": 999, "REV_AT_EPOCH": 96401, "BSTAR": 0.0002840445, "MEAN_MOTION_DOT": 1.68e-06, "MEAN_MOTION_DDOT": 0}, "tle": {"line1": "1 15935U 85066A   25342.85755093  .00000168  00000+0  28404-3 0  9991", "line2": "2 15935  90.1649  99.7836 0169411  94.7382  15.8226 13.36077407964013"}}, "geometry": {"type": "Point", "coordinates": [-80.44721389966554, -55.463020059968414]}}, {"type": "Feature", "properties": {"norad_id": 15936, "name": "OSCAR 24", "group": "nnss", "lat": -49.843549558919875, "lon": 92.4584695952424, "alt_km": 1240.9127771541825, "timestamp": "2025-12-09T09:46:47.913940+00:00", "meta": {"OBJECT_NAME": "OSCAR 24", "OBJECT_ID": "1985-066B", "EPOCH": "2025-12-08T20:13:44.976288", "MEAN_MOTION": 13.35935027, "ECCENTRICITY": 0.01704578, "INCLINATION": 90.1788, "RA_OF_ASC_NODE": 92.2365, "ARG_OF_PERICENTER": 101.2137, "MEAN_ANOMALY": 16.1688, "EPHEMERIS_TYPE": 0, "CLASSIFICATION_TYPE": "U", "NORAD_CAT_ID": 15936, "ELEMENT_SET_NO": 999, "REV_AT_EPOCH": 96591, "BSTAR": 0.00026157043, "MEAN_MOTION_DOT": 1.56e-06, "MEAN_MOTION_DDOT": 0}, "tle": {"line1": "1 15936U 85066B   25342.84288167  .00000156  00000+0  26157-3 0  9994", "line2": "2 15936  90.1788  92.2365 0170457 101.2137  16.1688 13.35935027965913"}}, "geometry": {"type": "Point", "coordinates": [92.4584695952424, -49.843549558919875]}}]}